SHIJIAN-6 02A (SJ-6 02A)
1 29505U 26101.91280093  4.72000-5 2.47813-4 0 0                     
2 29505  97.6444 142.4971 0003576  36.3414 323.8061 15.16213689      
SHIJIAN-6 02B (SJ-6 02B)
1 29506U 26101.96134259  1.72900-5 1.39468-4 0 0                     
2 29506  97.7123 131.4447 0011675 292.8511  67.1480 15.01167375      
DMSP 5D-3 F17 (USA 191)
1 29522U 26101.98354167  1.39000-6 9.40332-5 0 0                     
2 29522  98.7404 109.9036 0009020 242.0445 117.9816 14.14979306      
BADR-4
1 29526U 26101.87589120  1.49000-6  00000-0 0 0                      
2 29526   1.8327  81.8044 0006807 292.7080 167.2379  1.00277182      
NAVSTAR 59 (USA 192)
1 29601U 26101.60638889  1.20000-7  00000-0 0 0                      
2 29601  54.9473 216.6445 0086871  90.0523 270.9365  2.00554244      
WILDBLUE-1
1 29643U 26101.92643519  4.50000-7  00000-0 0 0                      
2 29643   2.6311  81.2926 0001598 304.0106  37.1663  1.00272386      
LAPAN-TUBSAT
1 29709U 26101.92491898  7.40000-7 1.51574-5 0 0                     
2 29709  98.1353  99.6611 0013216  45.9184 314.3116 14.85880743      
THEMIS A
1 30580U 26101.52420139  3.30000-7 2.99721-2 0 0                     
2 30580   7.3912 115.7458 8387775 185.9917 143.9268  0.87845235      
SKYNET 5A
1 30794U 26101.89601852  2.66000-6  00000-0 0 0                      
2 30794   5.1337  74.5279 0003943 315.5493 227.8142  1.00273879      
THEMIS D
1 30797U 26101.46910880  2.00000-7  00000-0 0 0                      
2 30797   7.0587  83.1620 8343469 221.2595 112.2057  0.87834322      
THEMIS E
1 30798U 26097.01251157  1.03000-6  00000-0 0 0                      
2 30798   4.9693 100.1033 8393057 204.9643 176.2275  0.88160021      
ANIK F3
1 31102U 26101.92496528  2.00000-8  00000-0 0 0                      
2 31102   1.0249  84.5916 0002776 300.5265  29.3003  1.00272472      
HAIYANG-1B
1 31113U 26101.86017361  8.60000-7 4.82872-5 0 0                     
2 31113  98.3467  86.2910 0014367  41.8898 318.3383 14.31010526      
SAUDISAT 3
1 31118U 26101.61569444  2.69000-6 5.15750-5 0 0                     
2 31118  98.1399  51.9974 0016015  80.2497 280.0518 14.71384451      
SAUDICOMSAT 7
1 31119U 26101.50090278  6.67000-6 1.28310-4 0 0                     
2 31119  98.3728  74.2908 0056759  46.4202 314.1692 14.66030742      
SAUDICOMSAT 6
1 31121U 26101.86383102  3.70000-6 8.05740-5 0 0                     
2 31121  98.4042  68.1752 0071969 172.3096 187.9227 14.62479069      
SAUDICOMSAT 5
1 31124U 26101.90763889  6.31000-6 1.17482-4 0 0                     
2 31124  98.3442  75.4659 0046925 335.7163  24.1829 14.68077797      
SAUDICOMSAT 3
1 31125U 26101.43804398  7.09000-6 1.24248-4 0 0                     
2 31125  98.3098  75.5441 0037806 262.9094  96.7812 14.70608064      
SAUDICOMSAT 4
1 31127U 26101.88009259  5.03000-6 1.01930-4 0 0                     
2 31127  98.3933  73.1247 0064741 105.2415 255.5957 14.64428960      
ASTRA 1L
1 31306U 26101.87236111  1.82000-6  00000-0 0 0                      
2 31306   1.1492  82.0215 0004529 319.3660  88.2282  1.00271152      
GALAXY 17 (G-17)
1 31307U 26101.86039352  2.02000-6  00000-0 0 0                      
2 31307   2.8034  80.7096 0004125 316.4851  27.6265  1.00271440      
YAOGAN-2
1 31490U 26101.88206019  5.29000-6 7.27051-5 0 0                     
2 31490  98.2739 320.2563 0021628 125.6882 234.6347 14.82576443      
GLOBALSTAR M069
1 31573U 26101.71505787  9.10000-7 1.48064-5 0 0                     
2 31573  52.0025  80.2650 0001993  14.2802 157.0750 12.23470137      
GLOBALSTAR M072
1 31574U 26101.89574074  6.30000-7 2.86508-4 0 0                     
2 31574  51.9933 276.7335 0001609 153.0699  15.1439 11.91657259      
COSMO-SKYMED 1
1 31598U 26101.95907407  2.24500-5 2.01399-4 0 0                     
2 31598  97.8889 293.2646 0001659  89.1297 271.0114 14.96792483      
TERRASAR-X
1 31698U 26101.46715278  6.49000-6 3.41128-5 0 0                     
2 31698  97.4463 110.1259 0002038  87.1638 272.9830 15.19151957      
COSMOS 2428
1 31792U 26101.80834491  1.02000-6 2.88240-5 0 0                     
2 31792  70.9407 133.8321 0009598 242.1144 117.9005 14.12948669      
WORLDVIEW-1 (WV-1)
1 32060U 26101.85969907  5.34000-5 2.22262-4 0 0                     
2 32060  97.3855 222.5375 0001090 295.1415  64.9710 15.24171886      
INTELSAT 11 (IS-11)
1 32253U 26101.88856481  9.00000-7  00000-0 0 0                      
2 32253   3.3919  79.4529 0002233 222.7938 275.0313  0.99047848      
WGS F1 (USA 195)
1 32258U 26101.72621528  2.65000-6  00000-0 0 0                      
2 32258   0.0753  81.9060 0000107 261.2094  75.7856  1.00272860      
NAVSTAR 60 (USA 196)
1 32260U 26100.91457176  3.50000-7  00000-0 0 0                      
2 32260  54.0462  82.8367 0164246  86.3177 275.5639  2.00558827      
GLOBALSTAR M066
1 32265U 26101.89221065  9.30000-7 1.11187-5 0 0                     
2 32265  51.9583 248.2268 0004064 257.6808 270.7866 12.30388207      
COSMOS 2433 [GLONASS-M]
1 32275U 26098.93480324  2.60000-7  00000-0 0 0                      
2 32275  65.6149 318.2651 0000801 244.4219 115.6167  2.13104206      
COSMOS 2432 [GLONASS-M]
1 32276U 26100.14217593  1.70000-7  00000-0 0 0                      
2 32276  65.6303 318.3510 0009558 337.0038 173.4092  2.13103429      
YAOGAN-3
1 32289U 26102.00807870  1.08800-5 1.17013-4 0 0                     
2 32289  97.8229 132.5324 0001173  84.1446 275.9906 14.90534049      
SKYNET 5B
1 32294U 26101.86164352  1.46000-6  00000-0 0 0                      
2 32294   5.0851  74.2753 0003819 300.4134 160.6774  1.00269322      
ASTRA 4A
1 32299U 26101.87815972  3.40000-7  00000-0 0 0                      
2 32299   0.0606  66.7890 0002702 328.2256 126.0196  1.00272533      
COSMO-SKYMED 2
1 32376U 26101.93320602  3.54000-6 5.10544-5 0 0                     
2 32376  97.8883 286.4900 0001391  90.6821 269.4552 14.82149306      
RADARSAT-2
1 32382U 26101.98530093  5.40000-7 3.80585-5 0 0                     
2 32382  98.5814 109.8584 0001236  84.7613 275.3711 14.29983120      
NAVSTAR 61 (USA 199)
1 32384U 26100.97921296  8.00000-8  00000-0 0 0                      
2 32384  55.0868 276.8525 0034091 161.6208  12.2809  2.00555969      
HORIZONS-2
1 32388U 26101.86256944  2.50000-6  00000-0 0 0                      
2 32388   2.4302  81.4181 0003158 312.4886  42.9107  1.00273093      
COSMOS 2434 [GLONASS-M]
1 32393U 26101.92565972    00000-0  00000-0 0 0                      
2 32393  64.3162 194.1494 0002061  57.6598 327.0188  2.13101540      
COSMOS 2436 [GLONASS-M]
1 32395U 26100.83863426  3.00000-8  00000-0 0 0                      
2 32395  64.3248 194.2574 0017197   2.3150  41.0315  2.13100448      
THURAYA-3
1 32404U 26101.82538194  2.96000-6  00000-0 0 0                      
2 32404   5.8784  35.6739 0002221 348.5954 211.4283  1.00271853      
THOR 5
1 32487U 26101.87703704  7.00000-8  00000-0 0 0                      
2 32487   0.0279 246.3915 0002540 144.3325 124.3521  1.00272612      
AMC-14
1 32708U 26100.88828704  8.40000-7  00000-0 0 0                      
2 32708  23.9275  21.3321 0048952 357.3865 187.9047  1.00336777      
NAVSTAR 62 (USA 201)
1 32711U 26100.33245370  2.80000-7  00000-0 0 0                      
2 32711  54.4857 152.6362 0208996 246.8322 111.0220  2.00570571      
DIRECTV 11
1 32729U 26101.92886574  1.24000-6  00000-0 0 0                      
2 32729   0.0233  70.7026 0000343 322.7007  41.9529  1.00272433      
ICO G1
1 32763U 26101.85866898  1.67000-6  00000-0 0 0                      
2 32763   5.5178  36.2776 0002675 323.5247  56.5279  1.00272595      
VINASAT-1
1 32767U 26101.90329861    00000-0  00000-0 0 0                      
2 32767   0.0095 179.5690 0002349 235.9429 241.7464  1.00269203      
STAR ONE C2
1 32768U 26102.19696759  2.74000-6  00000-0 0 0                      
2 32768   1.0712  82.9901 0002805 301.0411 182.2963  1.00270445      
CARTOSAT-2A
1 32783U 26102.15954861  4.26000-6 6.42320-5 0 0                     
2 32783  97.7708 153.1028 0011104 333.0425  27.0209 14.79159111      
CUTE-1.7+APD II (CO-65)
1 32785U 26102.14271991  4.42200-5 2.85060-4 0 0                     
2 32785  97.8246  82.2367 0007203 249.4103 110.6352 15.08840801      
CANX-2
1 32790U 26101.88444444  3.95200-5 2.81695-4 0 0                     
2 32790  97.8601  80.4164 0008918 268.3150  91.7054 15.05153953      
SEEDS II (CO-66)
1 32791U 26101.95270833  1.40330-4 4.77440-4 0 0                     
2 32791  97.7531  96.8107 0003879 144.5833 215.5665 15.30547494      
AMOS-3
1 32794U 26102.14280093  3.30000-7  00000-0 0 0                      
2 32794   0.2835  86.9642 0000361 184.0749 336.6233  1.00271647      
GALAXY 18 (G-18)
1 32951U 26102.00252315  2.60000-7  00000-0 0 0                      
2 32951   0.0194 230.3376 0003037 149.9458  57.8413  1.00275103      
YUBILEINY (RS30)
1 32953U 26102.18687500  4.00000-8 9.88460-5 0 0                     
2 32953  82.5060  36.4859 0020562  94.1963 266.1467 12.43177347      
COSMOS 2437
1 32954U 26102.21884259  9.00000-8 8.73100-6 0 0                     
2 32954  82.5040  38.4698 0021477 111.3543  54.1347 12.42757707      
COSMOS 2438
1 32955U 26102.21358796  6.20000-7 3.70750-4 0 0                     
2 32955  82.5048  33.8800 0022393  87.6605 272.7038 12.43367818      
COSMOS 2439
1 32956U 26102.17364583  7.00000-8 2.12630-5 0 0                     
2 32956  82.5089  38.8236 0021949  97.7588 262.5985 12.43068822      
FENGYUN 3A
1 32958U 26102.07436343  6.40000-7 5.09930-5 0 0                     
2 32958  98.6839  44.1612 0008082 325.0840  34.9806 14.19556876      
ZHONGXING-9
1 33051U 26102.03806713  2.47000-6  00000-0 0 0                      
2 33051   0.5980  86.1327 0007177 272.4929 307.7185  1.00274227      
FGRST (GLAST)
1 33053U 26101.95653935  2.88700-5 1.03580-4 0 0                     
2 33053  25.5828 304.2265 0007726 265.3614  94.6041 15.23593734      
